[
    {
        "Altitude(m)": 607886.7425044735,
        "Argument of Periapsis(deg)": 0.0,
        "Eccentricity": 0.0,
        "Inclination(deg)": 60.0,
        "Latitude(deg)": 40.99858194647542,
        "Longitude(deg)": 94.97294363930946,
        "Mean Anomaly(deg)": 49.09089999999999,
        "RAAN(deg)": 165.0,
        "Satellite Name": "Test1 729",
        "Satellite Number": 729,
        "Semi-Major Axis(m)": 6980739.136638005,
        "Time(s)": 0
    },
    {
        "Altitude(m)": 607987.6567908747,
        "Argument of Periapsis(deg)": 0.00010418945913296404,
        "Eccentricity": 0.0,
        "Inclination(deg)": 60.0,
        "Latitude(deg)": 41.46367236969748,
        "Longitude(deg)": 95.47717198736878,
        "Mean Anomaly(deg)": 49.71100614546182,
        "RAAN(deg)": 164.99957995086024,
        "Satellite Name": "Test1 729",
        "Satellite Number": 729,
        "Semi-Major Axis(m)": 6980739.136638005,
        "Time(s)": 10
    }
]